$$SOE
2460147.500000000, A.D. 2023-Jul-22 00:00:00.0000, -3.490028735674286E+08, -1.323275746686181E+08, 1.614506671297734E+07,
2460154.500000000, A.D. 2023-Jul-29 00:00:00.0000, -3.423992249260260E+08, -1.409820362932759E+08, 1.693504427587123E+07,
2460161.500000000, A.D. 2023-Aug-05 00:00:00.0000, -3.354692868357667E+08, -1.495020959493327E+08, 1.770887807316539E+07,
2460168.500000000, A.D. 2023-Aug-12 00:00:00.0000, -3.282118483330660E+08, -1.578761472093729E+08, 1.846541766412392E+07,
2460175.500000000, A.D. 2023-Aug-19 00:00:00.0000, -3.206259598813939E+08, -1.660921457045791E+08, 1.920347189974674E+07,
2460182.500000000, A.D. 2023-Aug-26 00:00:00.0000, -3.127109651975952E+08, -1.741375925013950E+08, 1.992180759296862E+07,
2460189.500000000, A.D. 2023-Sep-02 00:00:00.0000, -3.044665362808560E+08, -1.819995179941957E+08, 2.061914825654058E+07,
2460196.500000000, A.D. 2023-Sep-09 00:00:00.0000, -2.958927118651131E+08, -1.896644665970237E+08, 2.129417292812385E+07,
2460203.500000000, A.D. 2023-Sep-16 00:00:00.0000, -2.869899393926567E+08, -1.971184825810318E+08, 2.194551509329042E+07,
2460210.500000000, A.D. 2023-Sep-23 00:00:00.0000, -2.777591203644898E+08, -2.043470971126466E+08, 2.257176172786405E+07,
2460217.500000000, A.D. 2023-Sep-30 00:00:00.0000, -2.682016596797279E+08, -2.113353157034618E+08, 2.317145263017603E+07,
2460224.500000000, A.D. 2023-Oct-07 00:00:00.0000, -2.583195215846648E+08, -2.180676070849824E+08, 2.374308026334261E+07,
2460231.500000000, A.D. 2023-Oct-14 00:00:00.0000, -2.481152914476058E+08, -2.245278973712734E+08, 2.428508979747694E+07,
2460238.500000000, A.D. 2023-Oct-21 00:00:00.0000, -2.375922403686043E+08, -2.306995685435365E+08, 2.479587925160509E+07,
2460245.500000000, A.D. 2023-Oct-28 00:00:00.0000, -2.267543942519800E+08, -2.365654597245497E+08, 2.527380012487750E+07,
2460252.500000000, A.D. 2023-Nov-04 00:00:00.0000, -2.156066087429404E+08, -2.421078728415372E+08, 2.571715865224729E+07,
2460259.500000000, A.D. 2023-Nov-11 00:00:00.0000, -2.041546499313903E+08, -2.473085842166209E+08, 2.612421771223657E+07,
2460266.500000000, A.D. 2023-Nov-18 00:00:00.0000, -1.924052805935260E+08, -2.521488632091910E+08, 2.649319946469428E+07,
2460273.500000000, A.D. 2023-Nov-25 00:00:00.0000, -1.803663517742988E+08, -2.566094990719135E+08, 2.682228882844873E+07,
2460280.500000000, A.D. 2023-Dec-02 00:00:00.0000, -1.680468994121134E+08, -2.606708373376635E+08, 2.710963792130883E+07,
2460287.500000000, A.D. 2023-Dec-09 00:00:00.0000, -1.554572454725161E+08, -2.643128272198124E+08, 2.735337158632562E+07,
2460294.500000000, A.D. 2023-Dec-16 00:00:00.0000, -1.426091026217300E+08, -2.675150815456135E+08, 2.755159412326850E+07,
2460301.500000000, A.D. 2023-Dec-23 00:00:00.0000, -1.295156811393823E+08, -2.702569501584161E+08, 2.770239740023901E+07,
2460308.500000000, A.D. 2023-Dec-30 00:00:00.0000, -1.161917981386670E+08, -2.725176074233673E+08, 2.780387070775098E+07,
2460315.500000000, A.D. 2024-Jan-06 00:00:00.0000, -1.026539892220675E+08, -2.742761579009640E+08, 2.785411247662564E+07,
2460322.500000000, A.D. 2024-Jan-13 00:00:00.0000, -8.892061733427893E+07, -2.755117636673071E+08, 2.785124356569515E+07,
2460329.500000000, A.D. 2024-Jan-20 00:00:00.0000, -7.501197505756788E+07, -2.762037917617621E+08, 2.779342239002708E+07,
2460336.500000000, A.D. 2024-Jan-27 00:00:00.0000, -6.095037934015319E+07, -2.763319824691870E+08, 2.767886223584260E+07,
2460343.500000000, A.D. 2024-Feb-03 00:00:00.0000, -4.676025551512933E+07, -2.758766404237899E+08, 2.750585079503252E+07,
2460350.500000000, A.D. 2024-Feb-10 00:00:00.0000, -3.246820622742454E+07, -2.748188494053751E+08, 2.727277189201950E+07,
2460357.500000000, A.D. 2024-Feb-17 00:00:00.0000, -1.810306051622846E+07, -2.731407107785277E+08, 2.697812934684774E+07,
2460364.500000000, A.D. 2024-Feb-24 00:00:00.0000, -3.695897954395079E+06, -2.708256047199147E+08, 2.662057284375446E+07,
2460371.500000000, A.D. 2024-Mar-02 00:00:00.0000, 1.071995759115362E+07, -2.678584724458325E+08, 2.619892556872411E+07,
2460378.500000000, A.D. 2024-Mar-09 00:00:00.0000, 2.510898031020461E+07, -2.642261165313948E+08, 2.571221324955757E+07,
2460385.500000000, A.D. 2024-Mar-16 00:00:00.0000, 3.943352686009172E+07, -2.599175148624436E+08, 2.515969410451892E+07,
2460392.500000000, A.D. 2024-Mar-23 00:00:00.0000, 5.365396793662677E+07, -2.549241414520732E+08, 2.454088919782762E+07,
2460399.500000000, A.D. 2024-Mar-30 00:00:00.0000, 6.772886924541512E+07, -2.492402870180527E+08, 2.385561267023781E+07,
2460406.500000000, A.D. 2024-Apr-06 00:00:00.0000, 8.161522548917624E+07, -2.428633740935474E+08, 2.310400067623933E+07,
2460413.500000000, A.D. 2024-Apr-13 00:00:00.0000, 9.526875274106303E+07, -2.357942559179329E+08, 2.228653778219722E+07,
2460420.500000000, A.D. 2024-Apr-20 00:00:00.0000, 1.086442381021275E+08, -2.280374854722899E+08, 2.140408005718220E+07,
2460427.500000000, A.D. 2024-Apr-27 00:00:00.0000, 1.216959426189513E+08, -2.196015436321187E+08, 2.045787383401082E+07,
2460434.500000000, A.D. 2024-May-04 00:00:00.0000, 1.343780523894387E+08, -2.104990154741576E+08, 1.944956897550414E+07,
2460441.500000000, A.D. 2024-May-11 00:00:00.0000, 1.466451701282307E+08, -2.007467037655961E+08, 1.838122560055105E+07,
2460448.500000000, A.D. 2024-May-18 00:00:00.0000, 1.584528365334572E+08, -1.903656698804734E+08, 1.725531340610120E+07,
2460455.500000000, A.D. 2024-May-25 00:00:00.0000, 1.697580682200346E+08, -1.793811945204614E+08, 1.607470295254011E+07,
2460462.500000000, A.D. 2024-Jun-01 00:00:00.0000, 1.805198969943065E+08, -1.678226534771007E+08, 1.484264856464700E+07,
2460469.500000000, A.D. 2024-Jun-08 00:00:00.0000, 1.906998941352215E+08, -1.557233070294588E+08, 1.356276283220969E+07,
2460476.500000000, A.D. 2024-Jun-15 00:00:00.0000, 2.002626631070203E+08, -1.431200047870443E+08, 1.223898310687830E+07,
2460483.500000000, A.D. 2024-Jun-22 00:00:00.0000, 2.091762833186260E+08, -1.300528110498515E+08, 1.087553094835448E+07,
2460490.500000000, A.D. 2024-Jun-29 00:00:00.0000, 2.174126880368806E+08, -1.165645624281439E+08, 9.476865671836078E+06,
2460497.500000000, A.D. 2024-Jul-06 00:00:00.0000, 2.249479668853809E+08, -1.027003732880645E+08, 8.047632945622303E+06,
2460504.500000000, A.D. 2024-Jul-13 00:00:00.0000, 2.317625859960440E+08, -8.850710172754133E+07, 6.592610095747430E+06,
2460511.500000000, A.D. 2024-Jul-20 00:00:00.0000, 2.378415187762544E+08, -7.403279195911969E+07, 5.116650111972775E+06,
2460518.500000000, A.D. 2024-Jul-27 00:00:00.0000, 2.431742856056397E+08, -5.932611153380366E+07, 3.624626062325440E+06,
2460525.500000000, A.D. 2024-Aug-03 00:00:00.0000, 2.477549056129502E+08, -4.443580066719108E+07, 2.121377492374841E+06,
2460532.500000000, A.D. 2024-Aug-10 00:00:00.0000, 2.515817670866054E+08, -2.941014904079817E+07, 6.116602447132878E+05,
2460539.500000000, A.D. 2024-Aug-17 00:00:00.0000, 2.546574258395015E+08, -1.429651316054687E+07, -8.998991012120079E+05,
2460546.500000000, A.D. 2024-Aug-24 00:00:00.0000, 2.569883429419355E+08, 8.591153796693230E+05, -2.408843262357473E+06,
2460553.500000000, A.D. 2024-Aug-31 00:00:00.0000, 2.585845746002083E+08, 1.601248337815417E+07, -3.910918173615876E+06,
2460560.500000000, A.D. 2024-Sep-07 00:00:00.0000, 2.594594276547550E+08, 3.112138713794459E+07, -5.402100526528371E+06,
2460567.500000000, A.D. 2024-Sep-14 00:00:00.0000, 2.596290935977787E+08, 4.614592084863026E+07, -6.878618835714098E+06,
2460574.500000000, A.D. 2024-Sep-21 00:00:00.0000, 2.591122710433264E+08, 6.104866382655391E+07, -8.336968033117088E+06,
2460581.500000000, A.D. 2024-Sep-28 00:00:00.0000, 2.579297868194832E+08, 7.579480660898627E+07, -9.773918223722648E+06,
2460588.500000000, A.D. 2024-Oct-05 00:00:00.0000, 2.561042283634762E+08, 9.035222069099468E+07, -1.118651849603678E+07,
2460595.500000000, A.D. 2024-Oct-12 00:00:00.0000, 2.536595943145800E+08, 1.046914807646782E+08, -1.257209615331515E+07,
2460602.500000000, A.D. 2024-Oct-19 00:00:00.0000, 2.506209670696447E+08, 1.187858456946515E+08, -1.392825191177524E+07,
2460609.500000000, A.D. 2024-Oct-26 00:00:00.0000, 2.470142111340801E+08, 1.326112041599584E+08, -1.525285181925163E+07,
2460616.500000000, A.D. 2024-Nov-02 00:00:00.0000, 2.428656999086603E+08, 1.461459914509229E+08, -1.654401659887513E+07,
2460623.500000000, A.D. 2024-Nov-09 00:00:00.0000, 2.382020721212529E+08, 1.593710837322112E+08, -1.780010905096292E+07,
2460630.500000000, A.D. 2024-Nov-16 00:00:00.0000, 2.330500179933254E+08, 1.722696755362598E+08, -1.901972008349093E+07,
2460637.500000000, A.D. 2024-Nov-23 00:00:00.0000, 2.274360944193233E+08, 1.848271455647383E+08, -2.020165387921938E+07,
2460644.500000000, A.D. 2024-Nov-30 00:00:00.0000, 2.213865679702318E+08, 1.970309151989208E+08, -2.134491264880412E+07,
2460651.500000000, A.D. 2024-Dec-07 00:00:00.0000, 2.149272843036271E+08, 2.088703038937486E+08, -2.244868132883079E+07,
2460658.500000000, A.D. 2024-Dec-14 00:00:00.0000, 2.080835611678216E+08, 2.203363857635343E+08, -2.351231234728443E+07,
2460665.500000000, A.D. 2024-Dec-21 00:00:00.0000, 2.008801003991721E+08, 2.314218485965432E+08, -2.453531056586387E+07,
2460672.500000000, A.D. 2024-Dec-28 00:00:00.0000, 1.933409185831963E+08, 2.421208542730390E+08, -2.551731899173746E+07,
2460679.500000000, A.D. 2025-Jan-04 00:00:00.0000, 1.854892967170909E+08, 2.524289043970906E+08, -2.645810542529327E+07,
2460686.500000000, A.D. 2025-Jan-11 00:00:00.0000, 1.773477448657825E+08, 2.623427138136669E+08, -2.735754981853323E+07,
2460693.500000000, A.D. 2025-Jan-18 00:00:00.0000, 1.689379788419286E+08, 2.718600917730882E+08, -2.821563237896016E+07,
2460700.500000000, A.D. 2025-Jan-25 00:00:00.0000, 1.602809072728159E+08, 2.809798306775646E+08, -2.903242250043130E+07,
2460707.500000000, A.D. 2025-Feb-01 00:00:00.0000, 1.513966275502809E+08, 2.897016025615612E+08, -2.980806854343957E+07,
2460714.500000000, A.D. 2025-Feb-08 00:00:00.0000, 1.423044292125497E+08, 2.980258633181291E+08, -3.054278845604585E+07,
$$EOE